[{"OBJECT_NAME":"STARLINK-33742","OBJECT_ID":"2025-063D","EPOCH":"2026-03-09T09:03:17.135424","MEAN_MOTION":15.3020348,"ECCENTRICITY":0.00013424,"INCLINATION":53.1595,"RA_OF_ASC_NODE":53.7714,"ARG_OF_PERICENTER":80.6769,"MEAN_ANOMALY":279.4384,"EPHEMERIS_TYPE":0,"CLASSIFICATION_TYPE":"U","NORAD_CAT_ID":63366,"ELEMENT_SET_NO":999,"REV_AT_EPOCH":5466,"BSTAR":0.0012602432,"MEAN_MOTION_DOT":0.00037156,"MEAN_MOTION_DDOT":0},{"OBJECT_NAME":"KUIPER-00208","OBJECT_ID":"2026-030M","EPOCH":"2026-03-09T16:08:08.024640","MEAN_MOTION":15.32208734,"ECCENTRICITY":0.00155248,"INCLINATION":51.8846,"RA_OF_ASC_NODE":219.6993,"ARG_OF_PERICENTER":57.3146,"MEAN_ANOMALY":302.9333,"EPHEMERIS_TYPE":0,"CLASSIFICATION_TYPE":"U","NORAD_CAT_ID":67775,"ELEMENT_SET_NO":999,"REV_AT_EPOCH":508,"BSTAR":0.0013882708,"MEAN_MOTION_DOT":0.00043852,"MEAN_MOTION_DDOT":0}]
